O3B FM13                
1 43234U 18024D   25174.63556235 -.00000018  00000+0  00000+0 0  9993
2 43234   0.0228  18.9551 0003116 102.6869 238.3876  5.00115148133124
LKW-4                   
1 43236U 18025A   25174.37644418  .00010246  00000+0  26711-3 0  9992
2 43236  97.6006 320.3566 0004601 148.5377 211.6144 15.39041549404489
BEIDOU-3 M9             
1 43245U 18029A   25175.33651386 -.00000092  00000+0  00000+0 0  9993
2 43245  54.5165 312.4390 0000901 174.4684 185.5161  1.86232484 49235
BEIDOU-3 M10            
1 43246U 18029B   25174.73237652 -.00000092  00000+0  00000+0 0  9993
2 43246  54.5147 312.4876 0003446  29.4814 330.5211  1.86229049 49192
IRIDIUM 144             
1 43249U 18030A   25174.48087321  .00000135  00000+0  41186-4 0  9998
2 43249  86.3960  80.3735 0002230  81.9081 278.2368 14.34217508378724
IRIDIUM 149             
1 43250U 18030B   25174.48721539  .00000140  00000+0  42778-4 0  9990
2 43250  86.3956  80.3421 0002166  80.9119 279.2322 14.34218044378741
IRIDIUM 157             
1 43251U 18030C   25175.13415978  .00000036  00000+0  58089-5 0  9998
2 43251  86.3958  80.1169 0002125  90.5675 269.5764 14.34217895378813
IRIDIUM 140             
1 43252U 18030D   25174.45550259  .00000089  00000+0  24836-4 0  9995
2 43252  86.3958  80.4143 0002297  80.0712 280.0743 14.34217999378770
IRIDIUM 145             
1 43253U 18030E   25175.00096560  .00000127  00000+0  38423-4 0  9998
2 43253  86.3959  80.1592 0002090  74.2272 285.9154 14.34217848378788
IRIDIUM 146             
1 43254U 18030F   25173.44703019 -.00000089  00000+0 -38771-4 0  9994
2 43254  86.3957  80.8221 0002015  72.1632 287.9784 14.34217430378572
IRIDIUM 148             
1 43255U 18030G   25175.15953010  .00000091  00000+0  25399-4 0  9996
2 43255  86.3959  80.1438 0002045  85.1537 274.9893 14.34217986378864
IRIDIUM 142             
1 43256U 18030H   25174.70920579  .00000015  00000+0 -17865-5 0  9998
2 43256  86.3956  80.2341 0001964  70.9812 289.1596 14.34217563378750
IRIDIUM 150             
1 43257U 18030J   25174.74726175  .00000012  00000+0 -26419-5 0  9991
2 43257  86.3955  80.3226 0002109  76.2869 283.8561 14.34217536378782
IRIDIUM 143             
1 43258U 18030K   25175.14684464  .00000049  00000+0  10422-4 0  9996
2 43258  86.3963  80.2345 0002066  70.6919 289.4500 14.34217893378803
GAOFEN-1 02             
1 43259U 18031A   25175.54284824  .00000561  00000+0  87316-4 0  9993
2 43259  97.7720 236.2961 0006701  74.6370 285.5581 14.76613077389924
GAOFEN-1 03             
1 43260U 18031B   25175.52107349  .00000579  00000+0  89900-4 0  9999
2 43260  97.7713 236.1681 0007111 102.9731 257.2274 14.76594067389919
GAOFEN-1 04             
1 43262U 18031D   25175.56441293  .00000565  00000+0  87919-4 0  9997
2 43262  97.7724 236.3582 0003724  97.9584 262.2049 14.76592833389915
SUPERBIRD-B3            
1 43271U 18033A   25174.88983589 -.00000090  00000+0  00000+0 0  9997
2 43271   0.0163  13.8859 0001342 128.0763 252.6523  1.00270892 26440
HYLAS 4                 
1 43272U 18033B   25174.85100619 -.00000231  00000+0  00000+0 0  9997
2 43272   0.0623 271.7003 0000781 195.1563  78.2026  1.00269606 26471
YAOGAN-31 01A           
1 43275U 18034A   25175.55861545 -.00000075  00000+0  22366-4 0  9991
2 43275  63.3974 291.2636 0243373   6.3358 354.0651 13.45411570354097
YAOGAN-31 01B           
1 43276U 18034B   25175.55888401 -.00000086  00000+0  64146-5 0  9997
2 43276  63.3976 291.2570 0243388   6.3001 354.0991 13.45408860354105
YAOGAN-31 01C           
1 43277U 18034C   25175.55869039 -.00000086  00000+0  59821-5 0  9998
2 43277  63.3985 290.5775 0243534   6.0702 354.3182 13.45410226354129
WEINA 1B                
1 43279U 18034E   25175.55170213 -.00000083  00000+0  10613-4 0  9991
2 43279  63.3981 291.7233 0243302   6.8210 353.6028 13.45334036354095
IRNSS-1I                
1 43286U 18035A   25174.79754493  .00000060  00000+0  00000+0 0  9991
2 43286  29.1612  79.7836 0018109 179.9114 354.6158  1.00272145 26481
USA 283                 
1 43339U 18036A   25170.53773591 -.00000306  00000+0  00000+0 0  9993
2 43339   0.0165 358.7595 0000293 271.7170 325.2252  1.00269054  3761
COSMOS 2526             
1 43432U 18037A   25174.74309667 -.00000341  00000+0  00000+0 0  9993
2 43432   0.0284  81.9137 0000389  75.7425 150.0684  1.00272501 26371
TESS                    
1 43435U 18038A   25180.90219676 -.00002240  00000+0  00000+0 0  9992
2 43435  56.0143  49.3438 4535942  94.7055   2.7265  0.07665014  1296
SENTINEL-3B             
1 43437U 18039A   25174.89607147  .00000080  00000+0  51264-4 0  9992
2 43437  98.6298 242.5222 0000838 116.7841 243.3426 14.26735928373038
ZHUHAI-1 OVS-02         
1 43440U 18040B   25175.57797326  .00004879  00000+0  23303-3 0  9995
2 43440  97.0714 209.6996 0006131  88.2422 271.9516 15.19448722398311
ZHUHAI-1 OHS-02         
1 43441U 18040C   25175.55804818  .00006800  00000+0  26055-3 0  9992
2 43441  97.0775 214.3636 0014640  77.2320 283.0555 15.26725280398358
USA 285                 
1 43445U 18036E   25174.59027822 -.00000192  00000+0  00000+0 0  9993
2 43445   6.2421  71.2511 0010914 155.9024 145.0129  1.02114838 23268
USA 286                 
1 43446U 18036F   25170.40859692 -.00000164  00000+0  00000+0 0  9997
2 43446   6.2286  71.2669 0010470 152.7830 116.8530  1.02121506 23216
APSTAR-6C               
1 43450U 18041A   25174.91982502 -.00000315  00000+0  00000+0 0  9993
2 43450   0.0189 349.2906 0000921 298.0276  90.1466  1.00268718 26215
GAOFEN-5 01             
1 43461U 18043A   25174.86681433  .00000231  00000+0  58033-4 0  9990
2 43461  98.4062 135.1440 0002975 100.6963 259.4572 14.60173096379397
BANGABANDHUSAT-1        
1 43463U 18044A   25175.53307630 -.00000362  00000+0  00000+0 0  9994
2 43463   0.0164  30.8927 0001795  61.7301 131.3124  1.00268302 26142
GRACE-FO 1              
1 43476U 18047A   25175.21353946  .00002556  00000+0  74807-4 0  9994
2 43476  88.9787 247.3994 0014480  71.4032 288.8793 15.34720240394835
GRACE-FO 2              
1 43477U 18047B   25175.53985119  .00001170  00000+0  33669-4 0  9995
2 43477  88.9785 247.3535 0014394  70.2670 290.0134 15.34716983394882
IRIDIUM 161             
1 43478U 18047C   25174.45127006  .00000175  00000+0  46086-4 0  9990
2 43478  86.4491 238.3200 0002524  98.5376 261.6111 14.43286612373399
IRIDIUM 152             
1 43479U 18047D   25174.56141683  .00000189  00000+0  60493-4 0  9993
2 43479  86.3965 238.1348 0002451  94.9430 265.2046 14.34218677371094
IRIDIUM 147             
1 43480U 18047E   25175.54451703  .00000057  00000+0  13130-4 0  9991
2 43480  86.3967 237.7230 0002258  97.3250 262.8202 14.34217883371225
IRIDIUM 110             
1 43481U 18047F   25175.55086056  .00000054  00000+0  12387-4 0  9998
2 43481  86.3969 237.8028 0002640 103.1931 256.9559 14.34217774371218
IRIDIUM 162             
1 43482U 18047G   25175.55426246  .00000265  00000+0  72691-4 0  9996
2 43482  86.4490 237.7546 0002694  96.6108 263.5400 14.43287072373549
GAOFEN-6                
1 43484U 18048A   25175.54322786  .00000497  00000+0  78312-4 0  9995
2 43484  97.8228 245.3189 0011359 247.7749 112.2256 14.76575055380614
LUOJIA-1 01             
1 43485U 18048B   25175.56116446  .00001434  00000+0  17325-3 0  9990
2 43485  97.8430 254.3410 0008698 207.6100 152.4654 14.85266481381074
SES-12                  
1 43488U 18049A   25175.17405685 -.00000267  00000+0  00000+0 0  9999
2 43488   0.0168  26.7177 0000821 238.1553 165.3504  1.00270068 25827
FENGYUN 2H              
1 43491U 18050A   25174.87332861 -.00000122  00000+0  00000+0 0  9996
2 43491   2.1075  83.3677 0001093 116.0601 106.0908  1.00266311 25843
COSMOS 2527 [GLONASS-M] 
1 43508U 18053A   25174.09998890 -.00000040  00000+0  00000+0 0  9991
2 43508  65.3781  85.9031 0007254 237.8596 122.0830  2.13102122 54623
XJS A                   
1 43518U 18054A   25175.18270732  .00239231  00000+0  87233-3 0  9994
2 43518  35.0479 200.9612 0006459 161.2109 198.8865 15.86771138392180
PAKTES 1A               
1 43529U 18056A   25175.56344015  .00001286  00000+0  11764-3 0  9999
2 43529  98.0799 313.5565 0021491 216.0807 143.8964 14.96730653378384
PRSS 1                  
1 43530U 18056B   25175.51262796  .00000607  00000+0  84706-4 0  9994
2 43530  97.8252 247.5791 0001785  94.0365 266.1051 14.81110314375474
BEIDOU-2 IGSO-7         
1 43539U 18057A   25175.08586655 -.00000067  00000+0  00000+0 0  9990
2 43539  55.1676 166.1576 0089805 236.6423  11.8542  1.00254548 25539
TELSTAR 19V             
1 43562U 18059A   25174.55983897 -.00000275  00000+0  00000+0 0  9999
2 43562   0.0196 178.5250 0002506 297.2988 294.6757  1.00273984 25544
GSAT0221 (GALILEO 25)   
1 43564U 18060A   25172.90194095 -.00000080  00000+0  00000+0 0  9998
2 43564  57.2691 351.5061 0002452 297.6441  62.3455  1.70475689 43022
GSAT0222 (GALILEO 26)   
1 43565U 18060B   25174.88076964 -.00000089  00000+0  00000+0 0  9991
2 43565  57.2699 351.4552 0001950 237.5769 122.4116  1.70475546 43106
GSAT0219 (GALILEO 23)   
1 43566U 18060C   25170.40945768 -.00000070  00000+0  00000+0 0  9993
2 43566  57.2721 351.5776 0001900 320.8104  39.1944  1.70475751 42993
GSAT0220 (GALILEO 24)   
1 43567U 18060D   25171.80345377 -.00000075  00000+0  00000+0 0  9994
2 43567  57.2710 351.5403 0001958 303.7982  56.2002  1.70475418 43015
IRIDIUM 160             
1 43569U 18061A   25175.07808464  .00000092  00000+0  25873-4 0  9999
2 43569  86.3984 206.4025 0002446  96.2931 263.8543 14.34218204362047
IRIDIUM 166             
1 43570U 18061B   25175.52206559  .00000078  00000+0  20744-4 0  9994
2 43570  86.3984 206.1725 0002201  85.3356 274.8091 14.34218031362130
IRIDIUM 158             
1 43571U 18061C   25175.07174204  .00000099  00000+0  28136-4 0  9992
2 43571  86.3983 206.3702 0002513  89.6114 270.5369 14.34218303362045
